ORBCOMM FM37            
1 33064U 08031E   24140.14919719  .00005314  00000+0  78338-3 0  9994
2 33064  48.4406  52.2959 0005636 131.0376  11.3565 14.76502646855759
ORBCOMM FM40            
1 33065U 08031F   24141.15444620  .00005959  00000+0  84787-3 0  9991
2 33065  48.4434  36.8223 0007055 144.7399  10.9407 14.77847703856383
ORBCOMM FM109           
1 40086U 14040A   24140.90420920  .00002954  00000+0  69268-3 0  9997
2 40086  47.0032  71.6350 0002524 304.4231  55.6415 14.56647354523818
ORBCOMM FM107           
1 40087U 14040B   24140.93839194  .00002966  00000+0  69526-3 0  9998
2 40087  47.0049  72.4408 0002022 279.0771  80.9885 14.56658139523814
ORBCOMM FM111           
1 40089U 14040D   24141.13648204  .00003714  00000+0  48656-3 0  9996
2 40089  47.0023 183.8013 0031789 115.8525 244.5653 14.81874270531840
ORBCOMM FM104           
1 40090U 14040E   24140.16366239  .00002119  00000+0  52322-3 0  9998
2 40090  47.0036 105.0984 0017110 208.0694 151.9269 14.55159294523201
